FENGYUN 1C DEB          
1 36697U 99025DZT 17337.71835796  .00000650  00000-0  75430-4 0  9997
2 36697  98.8022 305.9917 0169382 213.4748 273.4083 14.80079057234146
